NORAD_CAT_ID,OBJECT_NAME,OBJECT_TYPE,EPOCH,MEAN_MOTION,ECCENTRICITY,INCLINATION,RA_OF_ASC_NODE,ARG_OF_PERICENTER,MEAN_ANOMALY,BSTAR,MEAN_MOTION_DOT,MEAN_MOTION_DDOT,TLE_LINE0,TLE_LINE1,TLE_LINE2,SEMIMAJOR_AXIS,PERIOD,APOGEE,PERIGEE,DECAYED
53735.0,STARLINK-4618,PAYLOAD,2023-02-22 16:41:08,15.08842688,0.0001234,53.217,211.383,83.9355,276.1777,9.2406e-05,1.183e-05,0.0,0 STARLINK-4618,1 53735U 22107AM  23053.69523790  .00001183  00000-0  92406-4 0  9997,2 53735  53.2170 211.3830 0001234  83.9355 276.1777 15.08842688 26728,6917.872,95.437,540.591,538.884,0.0
53735.0,STARLINK-4618,PAYLOAD,2023-02-23 03:48:50,15.08841454,0.0001159,53.2165,209.3007,85.329,274.7834,7.8119e-05,9.56e-06,0.0,0 STARLINK-4618,1 53735U 22107AM  23054.15891884  .00000956  00000-0  78119-4 0  9993,2 53735  53.2165 209.3007 0001159  85.3290 274.7834 15.08841454 26161,6917.876,95.437,540.543,538.939,0.0
53735.0,STARLINK-4618,PAYLOAD,2023-02-23 13:21:10,15.0882502,0.0001019,53.2178,207.5161,79.2659,280.8448,-0.00020864,-3.605e-05,0.0,0 STARLINK-4618,1 53735U 22107AM  23054.55636939 -.00003605  00000-0 -20864-3 0  9994,2 53735  53.2178 207.5161 0001019  79.2659 280.8448 15.08825020 26229,6917.926,95.439,540.496,539.086,0.0
53735.0,STARLINK-4618,PAYLOAD,2023-02-23 19:42:43,15.0882113,0.0001019,53.217,206.3268,77.5476,282.563,-0.0002147,-3.701e-05,0.0,0 STARLINK-4618,1 53735U 22107AM  23054.82133431 -.00003701  00000-0 -21470-3 0  9994,2 53735  53.2170 206.3268 0001019  77.5476 282.5630 15.08821130 26897,6917.938,95.439,540.508,539.098,0.0
53735.0,STARLINK-4618,PAYLOAD,2023-02-24 10:01:12,15.08824249,8.33e-05,53.2168,203.6508,77.54,282.5685,-9.1833e-07,-3.02e-06,0.0,0 STARLINK-4618,1 53735U 22107AM  23055.41750212 -.00000302  00000-0 -91833-6 0  9999,2 53735  53.2168 203.6508 0000833  77.5400 282.5685 15.08824249 26985,6917.929,95.439,540.37,539.217,0.0
53735.0,STARLINK-4618,PAYLOAD,2023-02-24 14:47:21,15.08833286,0.000112,53.2173,202.7572,91.8458,268.2662,7.6554e-05,9.31e-06,0.0,0 STARLINK-4618,1 53735U 22107AM  23055.61621606  .00000931  00000-0  76554-4 0  9992,2 53735  53.2173 202.7572 0001120  91.8458 268.2662 15.08833286 26385,6917.901,95.438,540.541,538.991,0.0
53735.0,STARLINK-4618,PAYLOAD,2023-02-24 21:08:53,15.08839338,0.0001066,53.218,201.5666,102.3813,257.7299,6.2389e-05,7.05e-06,0.0,0 STARLINK-4618,1 53735U 22107AM  23055.88117277  .00000705  00000-0  62389-4 0  9995,2 53735  53.2180 201.5666 0001066 102.3813 257.7299 15.08839338 27054,6917.882,95.438,540.485,539.01,0.0
53735.0,STARLINK-4618,PAYLOAD,2023-02-25 13:02:43,15.08842747,8.61e-05,53.2175,198.5948,79.3868,280.7221,0.00035878,5.427e-05,0.0,0 STARLINK-4618,1 53735U 22107AM  23056.54356479  .00005427  00000-0  35878-3 0  9996,2 53735  53.2175 198.5948 0000861  79.3868 280.7221 15.08842747 26521,6917.872,95.437,540.333,539.141,0.0
53735.0,STARLINK-4618,PAYLOAD,2023-02-25 17:48:53,15.08859722,0.0001095,53.2168,197.7025,72.5792,287.532,0.00067434,0.00010466,0.0,0 STARLINK-4618,1 53735U 22107AM  23056.74228708  .00010466  00000-0  67434-3 0  9993,2 53735  53.2168 197.7025 0001095  72.5792 287.5320 15.08859722 27180,6917.82,95.436,540.443,538.928,0.0
53735.0,STARLINK-4618,PAYLOAD,2023-02-26 01:45:49,15.08852443,0.0001367,53.2171,196.2156,69.9164,290.1975,0.0004704,7.209e-05,0.0,0 STARLINK-4618,1 53735U 22107AM  23057.07349170  .00007209  00000-0  47040-3 0  9999,2 53735  53.2171 196.2156 0001367  69.9164 290.1975 15.08852443 26603,6917.842,95.437,540.653,538.762,0.0
53735.0,STARLINK-4618,PAYLOAD,2023-02-26 08:07:21,15.08860654,0.0001455,53.2166,195.0263,75.7942,284.3212,0.00038891,5.91e-05,0.0,0 STARLINK-4618,1 53735U 22107AM  23057.33844667  .00005910  00000-0  38891-3 0  9990,2 53735  53.2166 195.0263 0001455  75.7942 284.3212 15.08860654 27276,6917.817,95.436,540.689,538.676,0.0
53735.0,STARLINK-4618,PAYLOAD,2023-02-26 17:39:39,15.08870014,0.0001169,53.2179,193.2407,83.2763,276.8362,0.00036122,5.47e-05,0.0,0 STARLINK-4618,1 53735U 22107AM  23057.73587594  .00005470  00000-0  36122-3 0  9993,2 53735  53.2179 193.2407 0001169  83.2763 276.8362 15.08870014 26707,6917.789,95.436,540.462,538.845,0.0
53735.0,STARLINK-4618,PAYLOAD,2023-02-27 01:36:35,15.08846996,0.0001159,53.2176,191.7549,86.2481,273.8644,-0.00017947,-3.143e-05,0.0,0 STARLINK-4618,1 53735U 22107AM  23058.06708051 -.00003143  00000-0 -17947-3 0  9994,2 53735  53.2176 191.7549 0001159  86.2481 273.8644 15.08846996 26750,6917.859,95.437,540.526,538.922,0.0
53735.0,STARLINK-4618,PAYLOAD,2023-02-27 11:08:54,15.08843086,0.0001537,53.218,189.9733,97.3419,262.7748,-0.00016749,-2.953e-05,0.0,0 STARLINK-4618,1 53735U 22107AM  23058.46452295 -.00002953  00000-0 -16749-3 0  9991,2 53735  53.2180 189.9733 0001537  97.3419 262.7748 15.08843086 27449,6917.871,95.437,540.799,538.673,0.0
53735.0,STARLINK-4618,PAYLOAD,2023-02-27 17:30:26,15.08891805,0.000135,53.2163,188.7812,100.2075,259.907,0.0017881,0.00028325,0.0,0 STARLINK-4618,1 53735U 22107AM  23058.72947250  .00028325  00000-0  17881-2 0  9996,2 53735  53.2163 188.7812 0001350 100.2075 259.9070 15.08891805 26852,6917.722,95.434,540.521,538.653,0.0
53735.0,STARLINK-4618,PAYLOAD,2023-02-28 01:27:23,15.08849157,0.0002301,53.2167,187.2948,70.6889,289.4352,0.0011877,0.0001867,0.0,0 STARLINK-4618,1 53735U 22107AM  23059.06068619  .00018670  00000-0  11877-2 0  9998,2 53735  53.2167 187.2948 0002301  70.6889 289.4352 15.08849157 26900,6917.852,95.437,541.309,538.126,0.0
53735.0,STARLINK-4618,PAYLOAD,2023-02-28 12:35:05,15.08828552,9.76e-05,53.216,185.2136,74.7847,285.3253,0.0010563,0.00016558,0.0,0 STARLINK-4618,1 53735U 22107AM  23059.52436747  .00016558  00000-0  10563-2 0  9994,2 53735  53.2160 185.2136 0000976  74.7847 285.3253 15.08828552 27604,6917.915,95.438,540.456,539.105,0.0
53735.0,STARLINK-4618,PAYLOAD,2023-02-28 14:10:28,15.08833304,0.0001145,53.2159,184.9162,71.9799,288.1318,0.0014247,0.00022455,0.0,0 STARLINK-4618,1 53735U 22107AM  23059.59060861  .00022455  00000-0  14247-2 0  9997,2 53735  53.2159 184.9162 0001145  71.9799 288.1318 15.08833304 26985,6917.901,95.438,540.558,538.974,0.0
53735.0,STARLINK-4618,PAYLOAD,2023-02-28 15:45:51,15.08835742,0.0001163,53.216,184.6191,69.7325,290.3792,0.0019482,0.0003085,0.0,0 STARLINK-4618,1 53735U 22107AM  23059.65684957  .00030850  00000-0  19482-2 0  9996,2 53735  53.2160 184.6191 0001163  69.7325 290.3792 15.08835742 27627,6917.893,95.438,540.563,538.954,0.0
53735.0,STARLINK-4618,PAYLOAD,2023-03-01 01:18:11,15.08825789,0.0001936,53.216,182.8348,63.4305,296.6885,0.0012476,0.00019616,0.0,0 STARLINK-4618,1 53735U 22107AM  23060.05430095  .00019616  00000-0  12476-2 0  9997,2 53735  53.2160 182.8348 0001936  63.4305 296.6885 15.08825789 27057,6917.924,95.438,541.128,538.45,0.0
53735.0,STARLINK-4618,PAYLOAD,2023-03-01 15:36:40,15.08831591,0.0001543,53.2158,180.1585,58.6018,301.5125,0.0021263,0.00033707,0.0,0 STARLINK-4618,1 53735U 22107AM  23060.65046904  .00033707  00000-0  21263-2 0  9996,2 53735  53.2158 180.1585 0001543  58.6018 301.5125 15.08831591 27140,6917.906,95.438,540.839,538.704,0.0
53735.0,STARLINK-4618,PAYLOAD,2023-03-02 15:27:26,15.08878857,0.0001805,53.2161,175.6986,59.9523,300.1648,0.0016702,0.00026422,0.0,0 STARLINK-4618,1 53735U 22107AM  23061.64406075  .00026422  00000-0  16702-2 0  9993,2 53735  53.2161 175.6986 0001805  59.9523 300.1648 15.08878857 27921,6917.762,95.435,540.875,538.378,0.0
53735.0,STARLINK-4618,PAYLOAD,2023-03-03 07:21:17,15.08879321,0.0001569,53.2167,172.7261,61.2992,298.8158,0.0017713,0.00028045,0.0,0 STARLINK-4618,1 53735U 22107AM  23062.30645358  .00028045  00000-0  17713-2 0  9992,2 53735  53.2167 172.7261 0001569  61.2992 298.8158 15.08879321 27391,6917.76,95.435,540.711,538.54,0.0
53735.0,STARLINK-4618,PAYLOAD,2023-03-03 10:32:03,15.08876002,0.0001581,53.2168,172.1313,34.3122,325.7972,0.0018165,0.00028769,0.0,0 STARLINK-4618,1 53735U 22107AM  23062.43893206  .00028769  00000-0  18165-2 0  9998,2 53735  53.2168 172.1313 0001581  34.3122 325.7972 15.08876002 28044,6917.77,95.435,540.729,538.542,0.0
53735.0,STARLINK-4618,PAYLOAD,2023-03-03 15:18:12,15.08888869,0.0001438,53.2173,171.2368,76.3249,283.7903,0.0018833,0.00029852,0.0,0 STARLINK-4618,1 53735U 22107AM  23062.63764452  .00029852  00000-0  18833-2 0  9996,2 53735  53.2173 171.2368 0001438  76.3249 283.7903 15.08888869 28071,6917.731,95.434,540.591,538.601,0.0
53735.0,STARLINK-4618,PAYLOAD,2023-03-04 07:12:03,15.08856127,0.0001458,53.2182,168.2618,122.2226,237.8907,0.0017434,0.00027579,0.0,0 STARLINK-4618,1 53735U 22107AM  23063.30004626  .00027579  00000-0  17434-2 0  9991,2 53735  53.2182 168.2618 0001458 122.2226 237.8907 15.08856127 27540,6917.831,95.437,540.705,538.687,0.0
53735.0,STARLINK-4618,PAYLOAD,2023-03-04 10:22:50,15.08837149,8.45e-05,53.2184,167.6664,89.9755,270.1334,0.00095277,0.00014907,0.0,0 STARLINK-4618,1 53735U 22107AM  23063.43252846  .00014907  00000-0  95277-3 0  9997,2 53735  53.2184 167.6664 0000845  89.9755 270.1334 15.08837149 28190,6917.889,95.438,540.339,539.17,0.0
53735.0,STARLINK-4618,PAYLOAD,2023-03-04 11:58:13,15.08844194,0.0001476,53.2187,167.3677,119.539,240.5749,0.00038969,5.92e-05,0.0,0 STARLINK-4618,1 53735U 22107AM  23063.49876617  .00005920  00000-0  38969-3 0  9991,2 53735  53.2187 167.3677 0001476 119.5390 240.5749 15.08844194 27570,6917.868,95.437,540.754,538.711,0.0
53735.0,STARLINK-4618,PAYLOAD,2023-03-04 15:08:59,15.08844468,0.0001533,53.2187,166.7727,122.4623,237.6518,0.00048083,7.374e-05,0.0,0 STARLINK-4618,1 53735U 22107AM  23063.63124621  .00007374  00000-0  48083-3 0  9991,2 53735  53.2187 166.7727 0001533 122.4623 237.6518 15.08844468 28223,6917.867,95.437,540.792,538.671,0.0
53735.0,STARLINK-4618,PAYLOAD,2023-03-06 05:18:15,15.08845135,0.0001296,53.2167,159.6427,90.8519,269.2621,0.00032225,4.845e-05,0.0,0 STARLINK-4618,1 53735U 22107AM  23065.22101075  .00004845  00000-0  32225-3 0  9997,2 53735  53.2167 159.6427 0001296  90.8519 269.2621 15.08845135 27831,6917.865,95.437,540.626,538.833,0.0
